GOES 17                 
1 43226U 18022A   21265.65093654  .00000085  00000-0  00000-0 0  9997
2 43226   0.0572 295.3656 0000368 252.4536 271.0435  1.00272910 13089
HISPASAT 30W-6          
1 43228U 18023A   21265.66630250 -.00000228  00000-0  00000-0 0  9990
2 43228   0.0502  31.1094 0002767 126.0803  54.4500  1.00272687 13137
PODSAT                  
1 43229U 18023B   21265.45280399  .00139119  95123-7  73248-3 0  9998
2 43229  26.9098 338.5014 4820622 347.4375   3.9249  6.11324709 66919
O3B FM15                
1 43231U 18024A   21265.23892210 -.00000030  00000-0  00000-0 0  9995
2 43231   0.0536   4.1450 0002590 176.0548 179.8017  5.00115664 64539
O3B FM16                
1 43232U 18024B   21265.49212630 -.00000029  00000-0  00000-0 0  9994
2 43232   0.0578   4.4038 0002600 175.2903 180.3077  5.00115599 64461
O3B FM14                
1 43233U 18024C   21265.53181900 -.00000029  00000-0  00000-0 0  9995
2 43233   0.0591   5.1253 0002687 171.4377 183.4406  5.00116089 64478
O3B FM13                
1 43234U 18024D   21264.54612145 -.00000031  00000-0  00000-0 0  9999
2 43234   0.0460 337.5459 0001091 121.1838 261.2836  5.00115644 64542
LKW-4                   
1 43236U 18025A   21266.08974052  .00001592  00000-0  70830-4 0  9995
2 43236  97.4523  23.8301 0007628  93.4375 266.7734 15.22930172195755
BEIDOU-3 M7             
1 43245U 18029A   21265.87505509 -.00000114  00000-0  00000-0 0  9990
2 43245  55.2986 359.5918 0000978 171.7474  76.4099  1.86232513 23708
BEIDOU-3 M8             
1 43246U 18029B   21265.80732508 -.00000114  00000-0  10000-3 0  9999
2 43246  55.2957 359.6243 0002835 352.8490 256.1819  1.86232830 23690
IRIDIUM 144             
1 43249U 18030A   21265.57601025  .00000099  00000-0  28331-4 0  9995
2 43249  86.3924 292.8049 0002192 101.8049 258.3393 14.34216873182370
IRIDIUM 149             
1 43250U 18030B   21266.07073174  .00000090  00000-0  25171-4 0  9991
2 43250  86.3922 292.5833 0002404 101.2310 258.9156 14.34218072182465
IRIDIUM 157             
1 43251U 18030C   21265.39207869  .00000098  00000-0  27992-4 0  9997
2 43251  86.3925 292.8823 0002307  83.4870 276.6588 14.34219086182344
IRIDIUM 140             
1 43252U 18030D   21265.48088007  .00000098  00000-0  27787-4 0  9991
2 43252  86.3925 292.8596 0002269 112.7590 247.3846 14.34217787182410
IRIDIUM 145             
1 43253U 18030E   21265.46818661  .00000090  00000-0  25019-4 0  9995
2 43253  86.3925 292.8431 0003221 107.3911 252.7637 14.34216904182345
IRIDIUM 146             
1 43254U 18030F   21266.00730998  .00000096  00000-0  27273-4 0  9993
2 43254  86.3924 292.6340 0002578  95.7582 264.3907 14.34219305182437
IRIDIUM 148             
1 43255U 18030G   21265.62675391  .00000097  00000-0  27502-4 0  9992
2 43255  86.3926 292.8115 0002516  87.6079 272.5405 14.34218916182414
IRIDIUM 142             
1 43256U 18030H   21265.38573240  .00000102  00000-0  29302-4 0  9993
2 43256  86.3923 292.8648 0002356  93.0964 267.0501 14.34218204182347
IRIDIUM 150             
1 43257U 18030J   21265.98195101  .00000093  00000-0  26073-4 0  9997
2 43257  86.3924 292.6758 0002225  96.8058 263.3391 14.34217804182474
IRIDIUM 143             
1 43258U 18030K   21265.47452957  .00000098  00000-0  27846-4 0  9991
2 43258  86.3929 292.9098 0002625 100.7540 259.3952 14.34220276182346
GAOFEN 1-02             
1 43259U 18031A   21266.10726350  .00000072  00000-0  17548-4 0  9995
2 43259  97.9277 343.0619 0004654 135.1703 224.9894 14.76514419187692
GAOFEN 1-03             
1 43260U 18031B   21266.08568296  .00000085  00000-0  19405-4 0  9995
2 43260  97.9271 343.0233 0004665 207.3266 152.7702 14.76524808187686
GAOFEN 1-04             
1 43262U 18031D   21266.06092247  .00000072  00000-0  17601-4 0  9995
2 43262  97.9279 343.0104 0004745 154.5991 205.5458 14.76524005187673
SUPERBIRD 8             
1 43271U 18033A   21265.63281072 -.00000105  00000-0  00000-0 0  9994
2 43271   0.0242 239.2433 0001274 339.9249 172.3564  1.00272140 12712
HYLAS 4                 
1 43272U 18033B   21265.66551753 -.00000245  00000-0  00000-0 0  9999
2 43272   0.0324 173.6877 0004637   6.3156  27.8169  1.00271989 12754
YAOGAN 31 A             
1 43275U 18034A   21266.14716791 -.00000090  00000-0  00000+0 0  9999
2 43275  63.4015 212.7416 0120121   3.2396 356.9373 13.45209734169746
YAOGAN 31 B             
1 43276U 18034B   21266.14736606 -.00000028  00000-0  10000-3 0  9993
2 43276  63.4020 212.7284 0120346   3.2239 356.9521 13.45210843169749
YAOGAN 31 C             
1 43277U 18034C   21266.07285999 -.00000065  00000-0  40608-4 0  9999
2 43277  63.4027 212.1287 0120131   3.1530 357.0222 13.45210385169751
WEINA 1B                
1 43279U 18034E   21266.16493902 -.00000090  00000-0  31207-6 0  9991
2 43279  63.4014 212.8016 0120088   4.4403 355.7645 13.45188106169748
IRNSS-1I                
1 43286U 18035A   21266.11395324  .00000104  00000-0  00000+0 0  9999
2 43286  29.2882 101.7271 0020171 178.4058 178.1551  1.00274663 12740
USA 283                 
1 43339U 18036A   21265.51160755 -.00000330  00000-0  00000+0 0  9992
2 43339   0.0052 311.5225 0000505 271.1981  97.1512  1.00271675  1408
COSMOS 2526             
1 43432U 18037A   21265.74306851 -.00000356  00000-0  00000-0 0  9990
2 43432   0.0215 140.7806 0000614 120.2250 136.3968  1.00274448 12633
TESS                    
1 43435U 18038A   21272.50681965 -.00000343  00000-0  00000+0 0  9993
2 43435  18.9056  88.2889 6149343 183.6606   7.1156  0.07514312   309
SENTINEL-3B             
1 43437U 18039A   21265.69817816  .00000014  00000-0  23875-4 0  9998
2 43437  98.6209 331.8181 0000759  88.4837 271.6430 14.26739901177652
ZHUHAI-1 OHS-01         
1 43439U 18040A   21266.23287549  .00001419  00000-0  70034-4 0  9996
2 43439  97.2823 329.9705 0011507 243.2685 201.4097 15.19426588189106
ZHUHAI-1 OVS-02         
1 43440U 18040B   21266.21864943  .00001330  00000-0  65550-4 0  9994
2 43440  97.2847 330.0645 0009438 265.4077 180.2352 15.19580941189114
ZHUHAI-1 OHS-02         
1 43441U 18040C   21266.20271244  .00001283  00000-0  63263-4 0  9996
2 43441  97.2942 331.8830 0009898 290.6447 153.8789 15.19626704189115
ZHUHAI-1 OHS-03         
1 43442U 18040D   21266.23263808  .00001406  00000-0  68442-4 0  9998
2 43442  97.2793 329.8782 0004172 291.6039 100.6556 15.19955722189129
ZHUHAI-1 OHS-04         
1 43443U 18040E   21266.18210646  .00001286  00000-0  63693-4 0  9994
2 43443  97.2865 330.5862 0004864 240.9961 203.7614 15.19484785189112
USA 285                 
1 43445U 18036E   21265.63289794  .00000035  00000-0  00000-0 0  9990
2 43445   2.8804  86.0672 0008323 100.3574 205.7195  1.02111972  9281
USA 286                 
1 43446U 18036F   21265.42331271  .00000005  00000-0  00000-0 0  9993
2 43446   2.8783  85.9985 0008184  96.9455 162.2079  1.02120098  9261
APSTAR 6C               
1 43450U 18041A   21266.20143301 -.00000328  00000-0  00000+0 0  9994
2 43450   0.0083 217.7222 0002579 350.4916   0.5771  1.00271155 12514
GAOFEN 5-01             
1 43461U 18043A   21266.09843694  .00000042  00000-0  19155-4 0  9995
2 43461  98.2363 203.6368 0003060  56.7808 303.3687 14.57840432179704
BANGABANDHUSAT-1        
1 43463U 18044A   21265.98312608 -.00000373  00000-0  00000+0 0  9993
2 43463   0.0212 251.4971 0002522 297.2274 286.3581  1.00275340 12402
GRACE-FO 1              
1 43476U 18047A   21265.71284689  .00000551  00000-0  21185-4 0  9997
2 43476  88.9770  74.8979 0014778 299.7187  60.2589 15.24356243185626
GRACE-FO 2              
1 43477U 18047B   21265.71316518  .00000552  00000-0  21246-4 0  9994
2 43477  88.9770  74.9011 0014566 299.4065  60.5728 15.24356131185626
IRIDIUM 161             
1 43478U 18047C   21265.75121345  .00000030  00000-0  27785-5 0  9997
2 43478  86.4438  90.8304 0001776  87.6889 272.4515 14.43278222175837
IRIDIUM 152             
1 43479U 18047D   21266.00538585  .00000019  00000-0 -12355-6 0  9991
2 43479  86.3911  90.5914 0002389  88.9403 271.2066 14.34218714174796
IRIDIUM 147             
1 43480U 18047E   21265.80241299  .00000027  00000-0  27158-5 0  9997
2 43480  86.3913  90.6516 0002066  81.6366 278.5064 14.34217979174755
IRIDIUM 110             
1 43481U 18047F   21265.45992109  .00000023  00000-0  10478-5 0  9995
2 43481  86.3915  90.8411 0001900  95.8750 264.2662 14.34218454174692
IRIDIUM 162             
1 43482U 18047G   21265.53691015  .00000026  00000-0  16231-5 0  9993
2 43482  86.4436  90.8343 0002019  96.9613 263.1818 14.43278676175793
GAOFEN 6                
1 43484U 18048A   21266.09019252  .00000071  00000-0  17496-4 0  9998
2 43484  97.9534 345.8646 0009440 355.6451   4.4679 14.76511441178385
LUOJIA-1 01             
1 43485U 18048B   21266.16489310  .00000194  00000-0  34917-4 0  9996
2 43485  97.9573 346.5131 0010926 348.9702  11.1272 14.76903418178418
SES-12                  
1 43488U 18049A   21265.90654855 -.00000281  00000-0  00000+0 0  9998
2 43488   0.0346  71.2549 0001946 166.5645 185.5216  1.00271919 12093
FENGYUN 2H              
1 43491U 18050A   21266.10743995 -.00000134  00000-0  00000+0 0  9998
2 43491   0.4771 105.6860 0004412  45.9678 328.1002  1.00267955 12181
COSMOS 2527 [GLONASS-M] 
1 43508U 18053A   21265.75979071  .00000035  00000-0  00000-0 0  9996
2 43508  64.9139 131.8104 0007154 222.7742 105.9125  2.13102620 25439
REMOVEDEBRIS            
1 43510U 98067NT  21265.29007110  .00088338  00000-0  36669-3 0  9992
2 43510  51.6302 111.9810 0000859 221.7119 138.3819 15.85029705186075
XJS A                   
1 43518U 18054A   21266.25580247  .00003540  00000-0  11817-3 0  9992
2 43518  35.0472 352.1507 0005777 138.8037 258.0962 15.30531575181336
XJS B                   
1 43519U 18054B   21266.25426804  .00003854  00000-0  12855-3 0  9992
2 43519  35.0482 352.0392 0004386 191.4591 205.5398 15.30528546181338
